GLOBALSTAR M035         
1 25851U 99037A   25014.27973968 -.00000090  00000+0 -99601-3 0  9990
2 25851  51.9973  38.1929 0013799  93.8479 349.6687 11.04535671 79257
GLOBALSTAR M032         
1 25852U 99037B   25014.60601064 -.00000043  00000+0  77576-3 0  9997
2 25852  51.9918 233.2597 0009917 271.8932  88.0732 11.19055575117596
GLOBALSTAR M051         
1 25853U 99037C   25014.55738668 -.00000051  00000+0  52600-3 0  9993
2 25853  51.9811  51.5050 0000693 275.6344  84.4387 11.42200188114833
GLOBALSTAR M030         
1 25854U 99037D   25014.57129086 -.00000048  00000+0  56934-3 0  9994
2 25854  51.9843 227.3458 0004503 121.6544 238.4712 11.55103562132295
GLOBALSTAR M048         
1 25872U 99041A   25014.30332253 -.00000063  00000+0  19542-3 0  9993
2 25872  51.9401 341.2031 0013135 279.8226 229.9198 11.33853272107529
GLOBALSTAR M026         
1 25873U 99041B   25014.62614841 -.00000141  00000+0 -28415-2 0  9991
2 25873  51.9983 156.9938 0001569  42.4292  41.0812 11.06825602131481
GLOBALSTAR M043         
1 25874U 99041C   25014.58113233 -.00000032  00000+0  10890-2 0  9992
2 25874  51.9410  82.0661 0013251  53.5523  95.9113 11.25690163105576
GLOBALSTAR M028         
1 25875U 99041D   25014.69838166 -.00000065  00000+0  23354-3 0  9990
2 25875  51.9630 290.7416 0063858  97.6770 263.1349 12.50574416171000
